1 45095U 20006BD  23001.41234365 -.00007639  00000-0 -49472-3 0  9991
2 45095  53.0566  68.7679 0002150  37.3148 322.7990 15.06379908161690
1 45095U 20006BD  23001.87677332 -.00004984  00000-0 -31600-3 0  9990
2 45095  53.0569  66.6830 0002152  35.6850 324.4282 15.06384408161764
1 45095U 20006BD  23002.60659769  .00004335  00000-0  30988-3 0  9992
2 45095  53.0586  63.4079 0002145  29.9345 330.1766 15.06383039161872
1 45095U 20006BD  23002.87199190  .00000997  00000-0  85878-4 0  9997
2 45095  53.0561  62.2155 0002089  30.8531 329.2581 15.06372295161913
1 45095U 20006BD  23003.20372977  .00004284  00000-0  30650-3 0  9991
2 45095  53.0565  60.7259 0002199  28.0116 332.0991 15.06381027161960
1 45095U 20006BD  23004.39796943  .00019979  00000-0  13554-2 0  9995
2 45095  53.0564  55.3653 0002489  33.0235 327.0909 15.06426353162143
1 45095U 20006BD  23004.86238819  .00015126  00000-0  10312-2 0  9999
2 45095  53.0559  53.2801 0002524  33.3899 326.7249 15.06434592162213
1 45095U 20006BD  23005.39314778  .00012304  00000-0  84239-3 0  9992
2 45095  53.0559  50.8972 0002593  35.0657 325.0502 15.06446239162295
1 45095U 20006BD  23006.52105576 -.00004103  00000-0 -25684-3 0  9991
2 45095  53.0559  45.8339 0002393  41.3948 318.7222 15.06375808162467
1 45095U 20006BD  23007.11818904  .00002222  00000-0  16815-3 0  9997
2 45095  53.0550  43.1539 0002338  42.4499 317.6671 15.06376362162555
1 45095U 20006BD  23007.78166314  .00010514  00000-0  72383-3 0  9996
2 45095  53.0534  40.1752 0002369  44.4141 315.7037 15.06392729162652
1 45095U 20006BD  23008.37878257  .00010417  00000-0  71702-3 0  9994
2 45095  53.0529  37.4945 0002405  47.2896 312.8295 15.06407757162740
1 45095U 20006BD  23008.77686263  .00005726  00000-0  40296-3 0  9993
2 45095  53.0532  35.7080 0002276  47.7498 312.3683 15.06405980162803
1 45095U 20006BD  23009.44033038  .00003216  00000-0  23470-3 0  9991
2 45095  53.0539  32.7302 0002353  51.1054 309.0144 15.06404912162907
1 45095U 20006BD  23010.36918899  .00000246  00000-0  35442-4 0  9994
2 45095  53.0537  28.5579 0002236  58.1652 301.9554 15.06400625163044
1 45095U 20006BD  23011.29804373  .00003570  00000-0  25839-3 0  9999
2 45095  53.0545  24.3891 0002211  62.2577 297.8636 15.06406043163188
1 45095U 20006BD  23011.82882013  .00003138  00000-0  22945-3 0  9990
2 45095  53.0543  22.0065 0002193  65.0820 295.0397 15.06401981163264
1 45095U 20006BD  23012.29325012  .00001481  00000-0  11835-3 0  9998
2 45095  53.0544  19.9213 0002143  70.8253 289.2968 15.06398529163334
1 45095U 20006BD  23013.28845858  .00000600  00000-0  59188-4 0  9999
2 45095  53.0543  15.4542 0002150  74.5044 285.6182 15.06395661163484
1 45095U 20006BD  23013.68653951  .00001742  00000-0  13586-3 0  9993
2 45095  53.0542  13.6676 0002210  79.0558 281.0680 15.06398412163545
1 45095U 20006BD  23015.14616385  .00005055  00000-0  35794-3 0  9992
2 45095  53.0542   7.1149 0002256  94.2936 265.8311 15.06411265163764
1 45095U 20006BD  23016.27405487  .00016429  00000-0  11185-2 0  9990
2 45095  53.0544   2.0515 0002084  95.5358 264.5869 15.06425524163934
1 45095U 20006BD  23016.93753300  .00000776  00000-0  71043-4 0  9992
2 45095  53.0541 359.0732 0002374  96.2226 263.9034 15.06390539164037
1 45095U 20006BD  23017.33562269  .00001542  00000-0  12251-3 0  9996
2 45095  53.0547 357.2848 0002400  90.8816 269.2448 15.06378017164097
1 45095U 20006BD  23017.66735821  .00003123  00000-0  22859-3 0  9990
2 45095  53.0547 355.7927 0002189 103.6030 256.5203 15.06386105164144
1 45095U 20006BD  23018.33082196  .00021937  00000-0  14860-2 0  9990
2 45095  53.0550 352.8151 0002146  94.0707 266.0528 15.06424354164248
1 45095U 20006BD  23019.32601130  .00015297  00000-0  10426-2 0  9991
2 45095  53.0552 348.3485 0002003  93.3460 266.7758 15.06435786164399
1 45095U 20006BD  23020.18853375  .00003944  00000-0  28356-3 0  9995
2 45095  53.0538 344.4784 0002057  84.8987 275.2237 15.06391783164878
1 45095U 20006BD  23025.23089493  .00022345  00000-0  15141-2 0  9991
2 45095  53.0546 321.8432 0001122  82.7040 277.4077 15.06402934165288
1 45095U 20006BD  23025.82802401  .00036920  00000-0  24851-2 0  9990
2 45095  53.0533 319.1621 0001863 101.8876 258.2322 15.06390943165372
1 45095U 20006BD  23026.09341169  .00025228  00000-0  17065-2 0  9997
2 45095  53.0536 317.9711 0001244  89.9282 270.1849 15.06399291165418
1 45095U 20006BD  23027.22130234  .00010440  00000-0  71843-3 0  9997
2 45095  53.0547 312.9072 0001370  85.2849 274.8296 15.06415539165931
1 45095U 20006BD  23028.21650760  .00000622  00000-0  60645-4 0  9998
2 45095  53.0542 308.4372 0001169 100.3291 259.7829 15.06398440166087
1 45095U 20006BD  23029.87518336  .00001155  00000-0  96448-4 0  9995
2 45095  53.0535 300.9917 0001217 100.2331 259.8796 15.06395533165981
1 45095U 20006BD  23030.53865213  .00001830  00000-0  14169-3 0  9998
2 45095  53.0531 298.0143 0001262  87.2876 272.8258 15.06398606166087
1 45095U 20006BD  23030.80403915  .00000854  00000-0  76216-4 0  9992
2 45095  53.0531 296.8229 0001259  91.0816 269.0317 15.06400369166120
1 45095U 20006BD  23031.53385201  .00003244  00000-0  23651-3 0  9990
2 45095  53.0531 293.5467 0001224  89.2486 270.8643 15.06404258166237
1 45095U 20006BD  23031.79923997  .00002905  00000-0  21380-3 0  9998
2 45095  53.0533 292.3563 0001209  87.0565 273.0562 15.06403059166277
1 45095U 20006BD  23032.13096848  .00003901  00000-0  28056-3 0  9997
2 45095  53.0531 290.8659 0001291  94.0452 266.0684 15.06411194166320
1 45095U 20006BD  23033.12617754 -.00000694  00000-0 -27709-4 0  9995
2 45095  53.0532 286.3982 0001268  89.7991 270.3143 15.06397251166474
1 45095U 20006BD  23034.05502982  .00001750  00000-0  13630-3 0  9993
2 45095  53.0528 282.2287 0001261  92.8778 267.2355 15.06405590166615
1 45095U 20006BD  23034.71850582  .00000510  00000-0  53107-4 0  9995
2 45095  53.0525 279.2503 0001198  93.1440 266.9686 15.06393218166715
1 45095U 20006BD  23035.91274249  .00002143  00000-0  16271-3 0  9992
2 45095  53.0521 273.8883 0001267  88.7266 271.3868 15.06407052166898
1 45095U 20006BD  23036.44352151  .00001270  00000-0  10414-3 0  9993
2 45095  53.0540 271.5067 0001171 101.6011 258.5109 15.06398357166976
1 45095U 20006BD  23036.90795177  .00000669  00000-0  63820-4 0  9994
2 45095  53.0520 269.4219 0001266  84.4152 275.6981 15.06396122167043
1 45095U 20006BD  23037.50507250  .00002324  00000-0  17482-3 0  9996
2 45095  53.0517 266.7421 0001399  80.7044 279.4103 15.06401902167131
1 45095U 20006BD  23037.90315050  .00006668  00000-0  46599-3 0  9991
2 45095  53.0514 264.9538 0001411  87.5452 272.5698 15.06410600167194
1 45095U 20006BD  23038.56662492  .00001084  00000-0  91678-4 0  9995
2 45095  53.0517 261.9747 0001468  98.9296 261.1859 15.06391431167643
1 45095U 20006BD  23038.89835923  .00001041  00000-0  88822-4 0  9992
2 45095  53.0528 260.4848 0001464 101.5407 258.5747 15.06391971167344
1 45095U 20006BD  23039.56182918  .00000038  00000-0  21466-4 0  9992
2 45095  53.0528 257.5060 0001594 108.7555 251.3607 15.06394398167447
1 45095U 20006BD  23039.89356121  .00000457  00000-0  49593-4 0  9993
2 45095  53.0532 256.0160 0001605 112.7317 247.3842 15.06397785167495
1 45095U 20006BD  23040.02625292  .00000923  00000-0  80876-4 0  9995
2 45095  53.0527 255.4207 0001427  95.1625 264.9527 15.06400950167519
1 45095U 20006BD  23040.82242008  .00001271  00000-0  10424-3 0  9991
2 45095  53.0544 251.8435 0002066 132.7040 227.4123 15.06393617167630
1 45095U 20006BD  23041.02145802  .00002131  00000-0  16189-3 0  9998
2 45095  53.0536 250.9513 0001359 104.7594 255.3545 15.06398349167663
1 45095U 20006BD  23041.68492759  .00001045  00000-0  89006-4 0  9998
2 45095  53.0525 247.9740 0001241 110.0926 250.0197 15.06400582167767
1 45095U 20006BD  23042.34839594  .00000172  00000-0  30454-4 0  9997
2 45095  53.0519 244.9981 0001236  76.9409 283.1717 15.06400044167863
1 45095U 20006BD  23042.81282713  .00000084  00000-0  24498-4 0  9997
2 45095  53.0517 242.9124 0001126  87.0972 273.0145 15.06396775167930
1 45095U 20006BD  23043.34359883 -.00000356  00000-0 -49992-5 0  9990
2 45095  53.0523 240.5290 0001397  74.1778 285.9365 15.06406390168017
1 45095U 20006BD  23044.33880533  .00000900  00000-0  79340-4 0  9993
2 45095  53.0523 236.0597 0001244  99.4366 260.6763 15.06396861168160
1 45095U 20006BD  23045.33400871  .00001290  00000-0  10551-3 0  9998
2 45095  53.0524 231.5923 0001272  93.1996 266.9139 15.06397877168316
1 45095U 20006BD  23045.79843853  .00003386  00000-0  24615-3 0  9993
2 45095  53.0536 229.5090 0001023  82.2947 277.8158 15.06392510168388
1 45095U 20006BD  23046.46190504  .00001412  00000-0  11364-3 0  9991
2 45095  53.0529 226.5298 0001193  81.3772 278.7353 15.06397869168481
1 45095U 20006BD  23046.79363279  .00002443  00000-0  18278-3 0  9994
2 45095  53.0528 225.0405 0001126  87.0982 273.0136 15.06405212168531
1 45095U 20006BD  23047.45711599  .00000634  00000-0  61540-4 0  9991
2 45095  53.0489 222.0622 0002843  94.7390 265.3924 15.06389935168633
1 45095U 20006BD  23047.58980889 -.00000184  00000-0  64984-5 0  9992
2 45095  53.0538 221.4671 0000813  83.8711 276.2370 15.06392626168655
1 45095U 20006BD  23048.45230921  .00001371  00000-0  11086-3 0  9995
2 45095  53.0540 217.5952 0000920  86.8995 273.2099 15.06404246168783
1 45095U 20006BD  23048.78403979  .00006431  00000-0  45006-3 0  9997
2 45095  53.0516 216.1048 0001025  93.4606 266.6500 15.06413565168830
1 45095U 20006BD  23049.44752235 -.00000157  00000-0  83595-5 0  9990
2 45095  53.0522 213.1274 0001280  76.5633 283.5499 15.06386452168930
1 45095U 20006BD  23050.57541997  .00015017  00000-0  10247-2 0  9998
2 45095  53.0518 208.0624 0001160  78.2882 281.8237 15.06405530169457
1 45095U 20006BD  23051.57062193  .00009224  00000-0  63716-3 0  9998
2 45095  53.0523 203.5941 0001218  71.1500 288.9621 15.06408499169258
1 45095U 20006BD  23052.56581164  .00015309  00000-0  10435-2 0  9992
2 45095  53.0530 199.1276 0001116  81.1382 278.9733 15.06432619169404
